STARLINK-36466          
1 67358U 26003AA  26036.45143233  .00088830  00000+0  15009-2 0  9995
2 67358  42.9987  49.9815 0001156 261.7029  98.3700 15.50614793  3883
STARLINK-36499          
1 67359U 26003AB  26036.75002315 -.02083122  00000+0 -47287-1 0  9999
2 67359  42.9996  48.2522 0000965 274.5406 307.0184 15.45809300  5544
STARLINK-36469          
1 67360U 26003AC  26036.75002315 -.02080278  00000+0 -44575-1 0  9997
2 67360  42.9998  48.2333 0001106 270.8039 317.8889 15.47453927  5540
STARLINK-35306          
1 67361U 26003AD  26036.38598557  .00111383  00000+0  18742-2 0  9991
2 67361  42.9979  50.3477 0001959 275.0496  85.0140 15.50627940  3873
STARLINK-36428          
1 67362U 26003AE  26036.38564261  .00107953  00000+0  18166-2 0  9995
2 67362  42.9974  50.3443 0002233 269.5748  90.4856 15.50641479  3873
TWILIGHT A              
1 67363U 26004A   26036.64696316  .00008026  00000+0  90012-3 0  9995
2 67363  97.8001  37.3610 0008093 203.5911 156.4935 14.87042876  3725
TWILIGHT B              
1 67364U 26004B   26036.64530803  .00009063  00000+0  10123-2 0  9990
2 67364  97.8004  37.3635 0008026 198.9035 161.1885 14.87174508  3732
TWILIGHT C              
1 67365U 26004C   26036.71223684  .00008898  00000+0  99347-3 0  9996
2 67365  97.7981  37.4260 0007614 204.0225 156.0637 14.87196927  3741
TWILIGHT D              
1 67366U 26004D   26036.64472819  .00005483  00000+0  61554-3 0  9991
2 67366  97.8036  37.3698 0008222 192.8445 167.2563 14.87146005  3735
TWILIGHT E              
1 67367U 26004E   26036.71030200  .00008282  00000+0  92256-3 0  9997
2 67367  97.7968  37.4264 0007073 205.4968 154.5901 14.87316889  3748
TWILIGHT F              
1 67368U 26004F   26036.64241513  .00008047  00000+0  89598-3 0  9995
2 67368  97.8028  37.3720 0007561 193.9501 166.1507 14.87340358  3737
TWILIGHT G              
1 67369U 26004G   26036.64185735  .00003774  00000+0  42432-3 0  9997
2 67369  97.7960  37.3607 0006454 207.7736 152.3137 14.87284092  3738
