CCSDS_OMM_VERS = 2.0
CREATION_DATE  = 
ORIGINATOR     = 

OBJECT_NAME    = STARLINK-36466
OBJECT_ID      = 2026-003AA
CENTER_NAME    = EARTH
REF_FRAME      = TEME
TIME_SYSTEM    = UTC
MEAN_ELEMENT_THEORY = SGP/SGP4

EPOCH          = 2026-02-05T10:50:03.753312
MEAN_MOTION    = 15.50614793
ECCENTRICITY   = .00011565
INCLINATION    = 42.9987
RA_OF_ASC_NODE = 49.9815
ARG_OF_PERICENTER = 261.7029
MEAN_ANOMALY   = 98.3700

EPHEMERIS_TYPE = 0
CLASSIFICATION_TYPE = U
NORAD_CAT_ID   = 67358
ELEMENT_SET_NO = 999
REV_AT_EPOCH   = 388
BSTAR          = .1500946E-2
MEAN_MOTION_DOT = .8883E-3
MEAN_MOTION_DDOT = 0

CCSDS_OMM_VERS = 2.0
CREATION_DATE  = 
ORIGINATOR     = 

OBJECT_NAME    = STARLINK-36499
OBJECT_ID      = 2026-003AB
CENTER_NAME    = EARTH
REF_FRAME      = TEME
TIME_SYSTEM    = UTC
MEAN_ELEMENT_THEORY = SGP/SGP4

EPOCH          = 2026-02-05T18:00:02.000160
MEAN_MOTION    = 15.45809300
ECCENTRICITY   = .00009654
INCLINATION    = 42.9996
RA_OF_ASC_NODE = 48.2522
ARG_OF_PERICENTER = 274.5406
MEAN_ANOMALY   = 307.0184

EPHEMERIS_TYPE = 0
CLASSIFICATION_TYPE = U
NORAD_CAT_ID   = 67359
ELEMENT_SET_NO = 999
REV_AT_EPOCH   = 554
BSTAR          = -.47286626E-1
MEAN_MOTION_DOT = -.2083122E-1
MEAN_MOTION_DDOT = 0

CCSDS_OMM_VERS = 2.0
CREATION_DATE  = 
ORIGINATOR     = 

OBJECT_NAME    = STARLINK-36469
OBJECT_ID      = 2026-003AC
CENTER_NAME    = EARTH
REF_FRAME      = TEME
TIME_SYSTEM    = UTC
MEAN_ELEMENT_THEORY = SGP/SGP4

EPOCH          = 2026-02-05T18:00:02.000160
MEAN_MOTION    = 15.47453927
ECCENTRICITY   = .00011066
INCLINATION    = 42.9998
RA_OF_ASC_NODE = 48.2333
ARG_OF_PERICENTER = 270.8039
MEAN_ANOMALY   = 317.8889

EPHEMERIS_TYPE = 0
CLASSIFICATION_TYPE = U
NORAD_CAT_ID   = 67360
ELEMENT_SET_NO = 999
REV_AT_EPOCH   = 554
BSTAR          = -.44575477E-1
MEAN_MOTION_DOT = -.2080278E-1
MEAN_MOTION_DDOT = 0

CCSDS_OMM_VERS = 2.0
CREATION_DATE  = 
ORIGINATOR     = 

OBJECT_NAME    = STARLINK-35306
OBJECT_ID      = 2026-003AD
CENTER_NAME    = EARTH
REF_FRAME      = TEME
TIME_SYSTEM    = UTC
MEAN_ELEMENT_THEORY = SGP/SGP4

EPOCH          = 2026-02-05T09:15:49.153248
MEAN_MOTION    = 15.50627940
ECCENTRICITY   = .00019593
INCLINATION    = 42.9979
RA_OF_ASC_NODE = 50.3477
ARG_OF_PERICENTER = 275.0496
MEAN_ANOMALY   = 85.0140

EPHEMERIS_TYPE = 0
CLASSIFICATION_TYPE = U
NORAD_CAT_ID   = 67361
ELEMENT_SET_NO = 999
REV_AT_EPOCH   = 387
BSTAR          = .18742101E-2
MEAN_MOTION_DOT = .111383E-2
MEAN_MOTION_DDOT = 0

CCSDS_OMM_VERS = 2.0
CREATION_DATE  = 
ORIGINATOR     = 

OBJECT_NAME    = STARLINK-36428
OBJECT_ID      = 2026-003AE
CENTER_NAME    = EARTH
REF_FRAME      = TEME
TIME_SYSTEM    = UTC
MEAN_ELEMENT_THEORY = SGP/SGP4

EPOCH          = 2026-02-05T09:15:19.521504
MEAN_MOTION    = 15.50641479
ECCENTRICITY   = .00022336
INCLINATION    = 42.9974
RA_OF_ASC_NODE = 50.3443
ARG_OF_PERICENTER = 269.5748
MEAN_ANOMALY   = 90.4856

EPHEMERIS_TYPE = 0
CLASSIFICATION_TYPE = U
NORAD_CAT_ID   = 67362
ELEMENT_SET_NO = 999
REV_AT_EPOCH   = 387
BSTAR          = .18165689E-2
MEAN_MOTION_DOT = .107953E-2
MEAN_MOTION_DDOT = 0

CCSDS_OMM_VERS = 2.0
CREATION_DATE  = 
ORIGINATOR     = 

OBJECT_NAME    = TWILIGHT A
OBJECT_ID      = 2026-004A
CENTER_NAME    = EARTH
REF_FRAME      = TEME
TIME_SYSTEM    = UTC
MEAN_ELEMENT_THEORY = SGP/SGP4

EPOCH          = 2026-02-05T15:31:37.617024
MEAN_MOTION    = 14.87042876
ECCENTRICITY   = .00080932
INCLINATION    = 97.8001
RA_OF_ASC_NODE = 37.3610
ARG_OF_PERICENTER = 203.5911
MEAN_ANOMALY   = 156.4935

EPHEMERIS_TYPE = 0
CLASSIFICATION_TYPE = U
NORAD_CAT_ID   = 67363
ELEMENT_SET_NO = 999
REV_AT_EPOCH   = 372
BSTAR          = .90012425E-3
MEAN_MOTION_DOT = .8026E-4
MEAN_MOTION_DDOT = 0

CCSDS_OMM_VERS = 2.0
CREATION_DATE  = 
ORIGINATOR     = 

OBJECT_NAME    = TWILIGHT B
OBJECT_ID      = 2026-004B
CENTER_NAME    = EARTH
REF_FRAME      = TEME
TIME_SYSTEM    = UTC
MEAN_ELEMENT_THEORY = SGP/SGP4

EPOCH          = 2026-02-05T15:29:14.613792
MEAN_MOTION    = 14.87174508
ECCENTRICITY   = .00080263
INCLINATION    = 97.8004
RA_OF_ASC_NODE = 37.3635
ARG_OF_PERICENTER = 198.9035
MEAN_ANOMALY   = 161.1885

EPHEMERIS_TYPE = 0
CLASSIFICATION_TYPE = U
NORAD_CAT_ID   = 67364
ELEMENT_SET_NO = 999
REV_AT_EPOCH   = 373
BSTAR          = .10122675E-2
MEAN_MOTION_DOT = .9063E-4
MEAN_MOTION_DDOT = 0

CCSDS_OMM_VERS = 2.0
CREATION_DATE  = 
ORIGINATOR     = 

OBJECT_NAME    = TWILIGHT C
OBJECT_ID      = 2026-004C
CENTER_NAME    = EARTH
REF_FRAME      = TEME
TIME_SYSTEM    = UTC
MEAN_ELEMENT_THEORY = SGP/SGP4

EPOCH          = 2026-02-05T17:05:37.262976
MEAN_MOTION    = 14.87196927
ECCENTRICITY   = .00076143
INCLINATION    = 97.7981
RA_OF_ASC_NODE = 37.4260
ARG_OF_PERICENTER = 204.0225
MEAN_ANOMALY   = 156.0637

EPHEMERIS_TYPE = 0
CLASSIFICATION_TYPE = U
NORAD_CAT_ID   = 67365
ELEMENT_SET_NO = 999
REV_AT_EPOCH   = 374
BSTAR          = .99346646E-3
MEAN_MOTION_DOT = .8898E-4
MEAN_MOTION_DDOT = 0

CCSDS_OMM_VERS = 2.0
CREATION_DATE  = 
ORIGINATOR     = 

OBJECT_NAME    = TWILIGHT D
OBJECT_ID      = 2026-004D
CENTER_NAME    = EARTH
REF_FRAME      = TEME
TIME_SYSTEM    = UTC
MEAN_ELEMENT_THEORY = SGP/SGP4

EPOCH          = 2026-02-05T15:28:24.515616
MEAN_MOTION    = 14.87146005
ECCENTRICITY   = .00082227
INCLINATION    = 97.8036
RA_OF_ASC_NODE = 37.3698
ARG_OF_PERICENTER = 192.8445
MEAN_ANOMALY   = 167.2563

EPHEMERIS_TYPE = 0
CLASSIFICATION_TYPE = U
NORAD_CAT_ID   = 67366
ELEMENT_SET_NO = 999
REV_AT_EPOCH   = 373
BSTAR          = .61554465E-3
MEAN_MOTION_DOT = .5483E-4
MEAN_MOTION_DDOT = 0

CCSDS_OMM_VERS = 2.0
CREATION_DATE  = 
ORIGINATOR     = 

OBJECT_NAME    = TWILIGHT E
OBJECT_ID      = 2026-004E
CENTER_NAME    = EARTH
REF_FRAME      = TEME
TIME_SYSTEM    = UTC
MEAN_ELEMENT_THEORY = SGP/SGP4

EPOCH          = 2026-02-05T17:02:50.092800
MEAN_MOTION    = 14.87316889
ECCENTRICITY   = .00070732
INCLINATION    = 97.7968
RA_OF_ASC_NODE = 37.4264
ARG_OF_PERICENTER = 205.4968
MEAN_ANOMALY   = 154.5901

EPHEMERIS_TYPE = 0
CLASSIFICATION_TYPE = U
NORAD_CAT_ID   = 67367
ELEMENT_SET_NO = 999
REV_AT_EPOCH   = 374
BSTAR          = .92256395E-3
MEAN_MOTION_DOT = .8282E-4
MEAN_MOTION_DDOT = 0

CCSDS_OMM_VERS = 2.0
CREATION_DATE  = 
ORIGINATOR     = 

OBJECT_NAME    = TWILIGHT F
OBJECT_ID      = 2026-004F
CENTER_NAME    = EARTH
REF_FRAME      = TEME
TIME_SYSTEM    = UTC
MEAN_ELEMENT_THEORY = SGP/SGP4

EPOCH          = 2026-02-05T15:25:04.667232
MEAN_MOTION    = 14.87340358
ECCENTRICITY   = .00075612
INCLINATION    = 97.8028
RA_OF_ASC_NODE = 37.3720
ARG_OF_PERICENTER = 193.9501
MEAN_ANOMALY   = 166.1507

EPHEMERIS_TYPE = 0
CLASSIFICATION_TYPE = U
NORAD_CAT_ID   = 67368
ELEMENT_SET_NO = 999
REV_AT_EPOCH   = 373
BSTAR          = .89597874E-3
MEAN_MOTION_DOT = .8047E-4
MEAN_MOTION_DDOT = 0

CCSDS_OMM_VERS = 2.0
CREATION_DATE  = 
ORIGINATOR     = 

OBJECT_NAME    = TWILIGHT G
OBJECT_ID      = 2026-004G
CENTER_NAME    = EARTH
REF_FRAME      = TEME
TIME_SYSTEM    = UTC
MEAN_ELEMENT_THEORY = SGP/SGP4

EPOCH          = 2026-02-05T15:24:16.475040
MEAN_MOTION    = 14.87284092
ECCENTRICITY   = .00064549
INCLINATION    = 97.7960
RA_OF_ASC_NODE = 37.3607
ARG_OF_PERICENTER = 207.7736
MEAN_ANOMALY   = 152.3137

EPHEMERIS_TYPE = 0
CLASSIFICATION_TYPE = U
NORAD_CAT_ID   = 67369
ELEMENT_SET_NO = 999
REV_AT_EPOCH   = 373
BSTAR          = .42432172E-3
MEAN_MOTION_DOT = .3774E-4
MEAN_MOTION_DDOT = 0

